[{"OBJECT_NAME":"STARLINK-30813","OBJECT_ID":"2023-170H","EPOCH":"2026-03-08T10:45:26.792064","MEAN_MOTION":15.26795732,"ECCENTRICITY":0.00021909,"INCLINATION":43.0016,"RA_OF_ASC_NODE":200.8924,"ARG_OF_PERICENTER":276.2944,"MEAN_ANOMALY":83.7658,"EPHEMERIS_TYPE":0,"CLASSIFICATION_TYPE":"U","NORAD_CAT_ID":58213,"ELEMENT_SET_NO":999,"REV_AT_EPOCH":13011,"BSTAR":-0.001014739,"MEAN_MOTION_DOT":-0.00027426,"MEAN_MOTION_DDOT":0},{"OBJECT_NAME":"FLOCK 4G-9","OBJECT_ID":"2025-009P","EPOCH":"2026-03-09T19:25:28.387776","MEAN_MOTION":15.26202239,"ECCENTRICITY":0.00036141,"INCLINATION":97.4,"RA_OF_ASC_NODE":150.6115,"ARG_OF_PERICENTER":328.2191,"MEAN_ANOMALY":31.8829,"EPHEMERIS_TYPE":0,"CLASSIFICATION_TYPE":"U","NORAD_CAT_ID":62622,"ELEMENT_SET_NO":999,"REV_AT_EPOCH":6369,"BSTAR":0.00041816911,"MEAN_MOTION_DOT":0.00010752,"MEAN_MOTION_DDOT":0}]
